{"type": "FeatureCollection", "features": [ {"type": "Feature", "properties": {"norad_id": 43437, "name": "SENTINEL-3B", "group": "resource", "lat": 74.31397592356626, "lon": -81.60994733362945, "alt_km": 794.4493733589388, "timestamp": "2025-12-26T16:33:55.241500+00:00", "meta": {"OBJECT_NAME": "SENTINEL-3B", "OBJECT_ID": "2018-039A", "EPOCH": "2025-12-26T04:18:07.439328", "MEAN_MOTION": 14.26739121, "ECCENTRICITY": 0.0001576, "INCLINATION": 98.6249, "RA_OF_ASC_NODE": 65.1708, "ARG_OF_PERICENTER": 88.4171, "MEAN_ANOMALY": 271.719, "EPHEMERIS_TYPE": 0, "CLASSIFICATION_TYPE": "U", "NORAD_CAT_ID": 43437, "ELEMENT_SET_NO": 999, "REV_AT_EPOCH": 39945, "BSTAR": 7.3873108e-05, "MEAN_MOTION_DOT": 1.35e-06, "MEAN_MOTION_DDOT": 0}, "tle": {"line1": "1 43437U 18039A   25360.17925277  .00000135  00000+0  73873-4 0  9998", "line2": "2 43437  98.6249  65.1708 0001576  88.4171 271.7190 14.26739121399459"}}, "geometry": {"type": "Point", "coordinates": [-81.60994733362945, 74.31397592356626]}}, {"type": "Feature", "properties": {"norad_id": 43461, "name": "GAOFEN-5 01", "group": "resource", "lat": -18.69883780275069, "lon": -33.218778249327, "alt_km": 696.9876083184799, "timestamp": "2025-12-26T16:33:55.241514+00:00", "meta": {"OBJECT_NAME": "GAOFEN-5 01", "OBJECT_ID": "2018-043A", "EPOCH": "2025-12-25T20:55:11.303904", "MEAN_MOTION": 14.60423654, "ECCENTRICITY": 5.489e-05, "INCLINATION": 98.4347, "RA_OF_ASC_NODE": 323.0695, "ARG_OF_PERICENTER": 234.7022, "MEAN_ANOMALY": 125.4127, "EPHEMERIS_TYPE": 0, "CLASSIFICATION_TYPE": "U", "NORAD_CAT_ID": 43461, "ELEMENT_SET_NO": 999, "REV_AT_EPOCH": 40639, "BSTAR": 0.00011249233, "MEAN_MOTION_DOT": 4.96e-06, "MEAN_MOTION_DDOT": 0}, "tle": {"line1": "1 43461U 18043A   25359.87165861  .00000496  00000+0  11249-3 0  9998", "line2": "2 43461  98.4347 323.0695 0000548 234.7022 125.4127 14.60423654406399"}}, "geometry": {"type": "Point", "coordinates": [-33.218778249327, -18.69883780275069]}}, {"type": "Feature", "properties": {"norad_id": 43484, "name": "GAOFEN-6", "group": "resource", "lat": 65.29186545807322, "lon": 47.15314758565472, "alt_km": 627.5032025663659, "timestamp": "2025-12-26T16:33:55.241523+00:00", "meta": {"OBJECT_NAME": "GAOFEN-6", "OBJECT_ID": "2018-048A", "EPOCH": "2025-12-26T08:08:03.367968", "MEAN_MOTION": 14.76589886, "ECCENTRICITY": 0.00124828, "INCLINATION": 97.8009, "RA_OF_ASC_NODE": 64.148, "ARG_OF_PERICENTER": 23.0381, "MEAN_ANOMALY": 337.1387, "EPHEMERIS_TYPE": 0, "CLASSIFICATION_TYPE": "U", "NORAD_CAT_ID": 43484, "ELEMENT_SET_NO": 999, "REV_AT_EPOCH": 40788, "BSTAR": 0.00014256065, "MEAN_MOTION_DOT": 9.47e-06, "MEAN_MOTION_DDOT": 0}, "tle": {"line1": "1 43484U 18048A   25360.33892787  .00000947  00000+0  14256-3 0  9997", "line2": "2 43484  97.8009  64.1480 0012482  23.0381 337.1387 14.76589886407886"}}, "geometry": {"type": "Point", "coordinates": [47.15314758565472, 65.29186545807322]}}, {"type": "Feature", "properties": {"norad_id": 43585, "name": "GAOFEN-11 01", "group": "resource", "lat": -73.68016223916277, "lon": 88.9110225999549, "alt_km": 423.2322851682684, "timestamp": "2025-12-26T16:33:55.241532+00:00", "meta": {"OBJECT_NAME": "GAOFEN-11 01", "OBJECT_ID": "2018-063A", "EPOCH": "2025-12-26T07:35:27.936384", "MEAN_MOTION": 15.49609771, "ECCENTRICITY": 0.00039176, "INCLINATION": 97.1534, "RA_OF_ASC_NODE": 63.1396, "ARG_OF_PERICENTER": 242.4214, "MEAN_ANOMALY": 117.664, "EPHEMERIS_TYPE": 0, "CLASSIFICATION_TYPE": "U", "NORAD_CAT_ID": 43585, "ELEMENT_SET_NO": 999, "REV_AT_EPOCH": 41352, "BSTAR": 0.00039033059, "MEAN_MOTION_DOT": 0.00021519, "MEAN_MOTION_DDOT": 0}, "tle": {"line1": "1 43585U 18063A   25360.31629556  .00021519  00000+0  39033-3 0  9994", "line2": "2 43585  97.1534  63.1396 0003917 242.4214 117.6640 15.49609771413522"}}, "geometry": {"type": "Point", "coordinates": [88.9110225999549, -73.68016223916277]}}, {"type": "Feature", "properties": {"norad_id": 43613, "name": "ICESAT-2", "group": "resource", "lat": 36.583521520909834, "lon": -116.98668882257053, "alt_km": 477.84619003474745, "timestamp": "2025-12-26T16:33:55.241543+00:00", "meta": {"OBJECT_NAME": "ICESAT-2", "OBJECT_ID": "2018-070A", "EPOCH": "2025-12-26T05:24:18.600192", "MEAN_MOTION": 15.28262727, "ECCENTRICITY": 0.00031749, "INCLINATION": 92.0035, "RA_OF_ASC_NODE": 244.3768, "ARG_OF_PERICENTER": 108.9683, "MEAN_ANOMALY": 251.1911, "EPHEMERIS_TYPE": 0, "CLASSIFICATION_TYPE": "U", "NORAD_CAT_ID": 43613, "ELEMENT_SET_NO": 999, "REV_AT_EPOCH": 40604, "BSTAR": 0.00045704051, "MEAN_MOTION_DOT": 0.00012586, "MEAN_MOTION_DDOT": 0}, "tle": {"line1": "1 43613U 18070A   25360.22521528  .00012586  00000+0  45704-3 0  9990", "line2": "2 43613  92.0035 244.3768 0003174 108.9683 251.1911 15.28262727406048"}}, "geometry": {"type": "Point", "coordinates": [-116.98668882257053, 36.583521520909834]}}, {"type": "Feature", "properties": {"norad_id": 43719, "name": "HYSIS", "group": "resource", "lat": -26.40970189634149, "lon": -120.4101254945533, "alt_km": 639.7022284881414, "timestamp": "2025-12-26T16:33:55.241552+00:00", "meta": {"OBJECT_NAME": "HYSIS", "OBJECT_ID": "2018-096A", "EPOCH": "2025-12-26T05:53:22.922016", "MEAN_MOTION": 14.78680557, "ECCENTRICITY": 7.843e-05, "INCLINATION": 98.0076, "RA_OF_ASC_NODE": 63.1561, "ARG_OF_PERICENTER": 55.2647, "MEAN_ANOMALY": 304.8637, "EPHEMERIS_TYPE": 0, "CLASSIFICATION_TYPE": "U", "NORAD_CAT_ID": 43719, "ELEMENT_SET_NO": 999, "REV_AT_EPOCH": 38186, "BSTAR": 0.0001560948, "MEAN_MOTION_DOT": 1.092e-05, "MEAN_MOTION_DDOT": 0}, "tle": {"line1": "1 43719U 18096A   25360.24540419  .00001092  00000+0  15609-3 0  9998", "line2": "2 43719  98.0076  63.1561 0000784  55.2647 304.8637 14.78680557381864"}}, "geometry": {"type": "Point", "coordinates": [-120.4101254945533, -26.40970189634149]}}, {"type": "Feature", "properties": {"norad_id": 43783, "name": "KAZSTSAT", "group": "resource", "lat": 39.79537746089867, "lon": 29.014036107892775, "alt_km": 568.7510704484239, "timestamp": "2025-12-26T16:33:55.241561+00:00", "meta": {"OBJECT_NAME": "KAZSTSAT", "OBJECT_ID": "2018-099AB", "EPOCH": "2025-12-26T01:58:17.402304", "MEAN_MOTION": 14.99373179, "ECCENTRICITY": 0.00063823, "INCLINATION": 97.4511, "RA_OF_ASC_NODE": 34.6913, "ARG_OF_PERICENTER": 270.6948, "MEAN_ANOMALY": 89.3544, "EPHEMERIS_TYPE": 0, "CLASSIFICATION_TYPE": "U", "NORAD_CAT_ID": 43783, "ELEMENT_SET_NO": 999, "REV_AT_EPOCH": 38536, "BSTAR": 5.8642616e-05, "MEAN_MOTION_DOT": 6.62e-06, "MEAN_MOTION_DDOT": 0}, "tle": {"line1": "1 43783U 18099AB  25360.08214586  .00000662  00000+0  58643-4 0  9995", "line2": "2 43783  97.4511  34.6913 0006382 270.6948  89.3544 14.99373179385366"}}, "geometry": {"type": "Point", "coordinates": [29.014036107892775, 39.79537746089867]}}, {"type": "Feature", "properties": {"norad_id": 43831, "name": "SAUDISAT 5A", "group": "resource", "lat": -24.50550232345663, "lon": 63.9769284479356, "alt_km": 489.8610252288272, "timestamp": "2025-12-26T16:33:55.241570+00:00", "meta": {"OBJECT_NAME": "SAUDISAT 5A", "OBJECT_ID": "2018-102A", "EPOCH": "2025-12-26T07:13:46.939872", "MEAN_MOTION": 15.25822339, "ECCENTRICITY": 0.00109622, "INCLINATION": 97.333, "RA_OF_ASC_NODE": 60.2301, "ARG_OF_PERICENTER": 33.8768, "MEAN_ANOMALY": 326.3169, "EPHEMERIS_TYPE": 0, "CLASSIFICATION_TYPE": "U", "NORAD_CAT_ID": 43831, "ELEMENT_SET_NO": 999, "REV_AT_EPOCH": 38929, "BSTAR": 0.00024475142, "MEAN_MOTION_DOT": 6.198e-05, "MEAN_MOTION_DDOT": 0}, "tle": {"line1": "1 43831U 18102A   25360.30123773  .00006198  00000+0  24475-3 0  9991", "line2": "2 43831  97.3330  60.2301 0010962  33.8768 326.3169 15.25822339389292"}}, "geometry": {"type": "Point", "coordinates": [63.9769284479356, -24.50550232345663]}}, {"type": "Feature", "properties": {"norad_id": 43833, "name": "SAUDISAT 5B", "group": "resource", "lat": 44.72677296554355, "lon": 56.037209228873024, "alt_km": 475.6152834675904, "timestamp": "2025-12-26T16:33:55.241580+00:00", "meta": {"OBJECT_NAME": "SAUDISAT 5B", "OBJECT_ID": "2018-102C", "EPOCH": "2025-12-26T06:55:37.060032", "MEAN_MOTION": 15.26167283, "ECCENTRICITY": 0.0011714, "INCLINATION": 97.3425, "RA_OF_ASC_NODE": 62.9807, "ARG_OF_PERICENTER": 35.9434, "MEAN_ANOMALY": 324.259, "EPHEMERIS_TYPE": 0, "CLASSIFICATION_TYPE": "U", "NORAD_CAT_ID": 43833, "ELEMENT_SET_NO": 999, "REV_AT_EPOCH": 38940, "BSTAR": 0.00023231244, "MEAN_MOTION_DOT": 5.942e-05, "MEAN_MOTION_DDOT": 0}, "tle": {"line1": "1 43833U 18102C   25360.28862338  .00005942  00000+0  23231-3 0  9992", "line2": "2 43833  97.3425  62.9807 0011714  35.9434 324.2590 15.26167283389407"}}, "geometry": {"type": "Point", "coordinates": [56.037209228873024, 44.72677296554355]}}, {"type": "Feature", "properties": {"norad_id": 44622, "name": "GAOFEN-10R", "group": "resource", "lat": -20.754549684509207, "lon": -48.68111828412506, "alt_km": 621.1521648822272, "timestamp": "2025-12-26T16:33:55.241589+00:00", "meta": {"OBJECT_NAME": "GAOFEN-10R", "OBJECT_ID": "2019-066A", "EPOCH": "2025-12-26T06:56:33.215712", "MEAN_MOTION": 14.82837481, "ECCENTRICITY": 0.00069041, "INCLINATION": 98.0296, "RA_OF_ASC_NODE": 307.8498, "ARG_OF_PERICENTER": 1.7305, "MEAN_ANOMALY": 358.3931, "EPHEMERIS_TYPE": 0, "CLASSIFICATION_TYPE": "U", "NORAD_CAT_ID": 44622, "ELEMENT_SET_NO": 999, "REV_AT_EPOCH": 33675, "BSTAR": 0.00022164326, "MEAN_MOTION_DOT": 1.74e-05, "MEAN_MOTION_DDOT": 0}, "tle": {"line1": "1 44622U 19066A   25360.28927333  .00001740  00000+0  22164-3 0  9992", "line2": "2 44622  98.0296 307.8498 0006904   1.7305 358.3931 14.82837481336750"}}, "geometry": {"type": "Point", "coordinates": [-48.68111828412506, -20.754549684509207]}}]}